NORAD_CAT_ID,OBJECT_NAME,OBJECT_TYPE,EPOCH,MEAN_MOTION,ECCENTRICITY,INCLINATION,RA_OF_ASC_NODE,ARG_OF_PERICENTER,MEAN_ANOMALY,BSTAR,MEAN_MOTION_DOT,MEAN_MOTION_DDOT,TLE_LINE0,TLE_LINE1,TLE_LINE2,SEMIMAJOR_AXIS,PERIOD,APOGEE,PERIGEE,DECAYED
56463.0,STARLINK-6051,PAYLOAD,2024-07-27 09:32:33,14.983279,0.0003539,69.9983,192.8774,275.4464,84.6292,-0.00032719,-3.995e-05,0.0,0 STARLINK-6051,1 56463U 23064R   24209.39760510 -.00003995  00000-0 -32719-3 0  9990,2 56463  69.9983 192.8774 0003539 275.4464  84.6292 14.98327900 66826,6950.199,96.107,574.524,569.605,0.0
56463.0,STARLINK-6051,PAYLOAD,2024-07-28 04:46:11,14.98312945,0.0003096,70.0002,190.8579,268.0898,91.9906,0.00054901,6.461e-05,0.0,0 STARLINK-6051,1 56463U 23064R   24210.19874827  .00006461  00000-0  54901-3 0  9993,2 56463  70.0002 190.8579 0003096 268.0898  91.9906 14.98312945 67309,6950.246,96.108,574.262,569.959,0.0
56463.0,STARLINK-6051,PAYLOAD,2024-07-28 09:34:36,14.98322747,0.0003072,70.0004,190.3529,268.739,91.3417,0.00063169,7.451e-05,0.0,0 STARLINK-6051,1 56463U 23064R   24210.39902834  .00007451  00000-0  63169-3 0  9991,2 56463  70.0004 190.3529 0003072 268.7390  91.3417 14.98322747 66973,6950.215,96.107,574.215,569.945,0.0
56463.0,STARLINK-6051,PAYLOAD,2024-07-29 04:48:12,14.98334747,0.0002958,70.0006,188.3334,266.8743,93.2078,0.00063185,7.455e-05,0.0,0 STARLINK-6051,1 56463U 23064R   24211.20014886  .00007455  00000-0  63185-3 0  9995,2 56463  70.0006 188.3334 0002958 266.8743  93.2078 14.98334747 67450,6950.178,96.107,574.099,569.987,0.0
56463.0,STARLINK-6051,PAYLOAD,2024-07-29 08:00:28,14.98338376,0.0002941,70.0006,187.9968,267.1812,92.9011,0.00069635,8.227e-05,0.0,0 STARLINK-6051,1 56463U 23064R   24211.33366798  .00008227  00000-0  69635-3 0  9995,2 56463  70.0006 187.9968 0002941 267.1812  92.9011 14.98338376 67119,6950.167,96.106,574.076,569.988,0.0
56463.0,STARLINK-6051,PAYLOAD,2024-07-29 22:25:41,14.9834033,0.0002947,70.0004,186.4817,266.7743,93.3079,0.0004539,5.328e-05,0.0,0 STARLINK-6051,1 56463U 23064R   24211.93450567  .00005328  00000-0  45390-3 0  9990,2 56463  70.0004 186.4817 0002947 266.7743  93.3079 14.98340330 67200,6950.161,96.106,574.074,569.978,0.0
56463.0,STARLINK-6051,PAYLOAD,2024-07-30 04:50:13,14.98342691,0.0002937,70.0004,185.8088,267.4497,92.6326,0.00046433,5.453e-05,0.0,0 STARLINK-6051,1 56463U 23064R   24212.20154408  .00005453  00000-0  46433-3 0  9994,2 56463  70.0004 185.8088 0002937 267.4497  92.6326 14.98342691 67609,6950.154,96.106,574.06,569.977,0.0
56463.0,STARLINK-6051,PAYLOAD,2024-07-30 08:02:29,14.98346263,0.0002914,70.0004,185.4723,267.6198,92.4628,0.00051817,6.098e-05,0.0,0 STARLINK-6051,1 56463U 23064R   24212.33506204  .00006098  00000-0  51817-3 0  9991,2 56463  70.0004 185.4723 0002914 267.6198  92.4628 14.98346263 67260,6950.143,96.106,574.033,569.982,0.0
56463.0,STARLINK-6051,PAYLOAD,2024-07-30 22:27:41,14.9833789,0.0002813,70.0006,183.9569,267.2102,92.8735,0.00013271,1.491e-05,0.0,0 STARLINK-6051,1 56463U 23064R   24212.93590207  .00001491  00000-0  13271-3 0  9997,2 56463  70.0006 183.9569 0002813 267.2102  92.8735 14.98337890 67351,6950.168,96.106,573.989,570.078,0.0
56463.0,STARLINK-6051,PAYLOAD,2024-07-31 04:52:14,14.98337604,0.0002839,69.9996,183.2845,267.8138,92.2696,0.00010073,1.109e-05,0.0,0 STARLINK-6051,1 56463U 23064R   24213.20294220  .00001109  00000-0  10073-3 0  9997,2 56463  69.9996 183.2845 0002839 267.8138  92.2696 14.98337604 67756,6950.169,96.107,574.008,570.061,0.0
56463.0,STARLINK-6051,PAYLOAD,2024-07-31 08:04:30,14.98338165,0.0002827,69.9997,182.9478,267.8813,92.2022,9.5387e-05,1.046e-05,0.0,0 STARLINK-6051,1 56463U 23064R   24213.33646077  .00001046  00000-0  95387-4 0  9994,2 56463  69.9997 182.9478 0002827 267.8813  92.2022 14.98338165 67411,6950.168,96.106,573.997,570.068,0.0
56463.0,STARLINK-6051,PAYLOAD,2024-07-31 22:29:42,14.98334251,0.0002748,69.9999,181.4327,268.2519,91.8326,1.8508e-05,1.28e-06,0.0,0 STARLINK-6051,1 56463U 23064R   24213.93730314  .00000128  00000-0  18508-4 0  9998,2 56463  69.9999 181.4327 0002748 268.2519  91.8326 14.98334251 67504,6950.18,96.107,573.955,570.135,0.0
56463.0,STARLINK-6051,PAYLOAD,2024-08-01 04:54:15,14.98335778,0.0002635,70.0003,180.7607,266.2592,93.8266,1.5929e-05,9.7e-07,0.0,0 STARLINK-6051,1 56463U 23064R   24214.20434084  .00000097  00000-0  15929-4 0  9993,2 56463  70.0003 180.7607 0002635 266.2592  93.8266 14.98335778 67904,6950.175,96.107,573.871,570.209,0.0
56463.0,STARLINK-6051,PAYLOAD,2024-08-01 08:06:31,14.98336434,0.0002625,70.0004,180.4241,266.3779,93.708,2.1294e-05,1.61e-06,0.0,0 STARLINK-6051,1 56463U 23064R   24214.33785972  .00000161  00000-0  21294-4 0  9996,2 56463  70.0004 180.4241 0002625 266.3779  93.7080 14.98336434 67568,6950.173,96.107,573.862,570.214,0.0
56463.0,STARLINK-6051,PAYLOAD,2024-08-01 22:31:43,14.98335338,0.0002723,70.0001,178.9082,270.4551,89.6296,9.8176e-05,1.079e-05,0.0,0 STARLINK-6051,1 56463U 23064R   24214.93869656  .00001079  00000-0  98176-4 0  9996,2 56463  70.0001 178.9082 0002723 270.4551  89.6296 14.98335338 67658,6950.176,96.107,573.934,570.149,0.0
56463.0,STARLINK-6051,PAYLOAD,2024-08-02 04:56:15,14.9833776,0.0002629,70.0003,178.236,266.7316,93.3543,0.00012165,1.359e-05,0.0,0 STARLINK-6051,1 56463U 23064R   24215.20573418  .00001359  00000-0  12165-3 0  9999,2 56463  70.0003 178.2360 0002629 266.7316  93.3543 14.98337760 68057,6950.169,96.107,573.861,570.207,0.0
56463.0,STARLINK-6051,PAYLOAD,2024-08-02 14:33:04,14.98334295,0.0002602,70.0004,177.2261,267.1372,92.949,8.0756e-05,8.71e-06,0.0,0 STARLINK-6051,1 56463U 23064R   24215.60629653  .00000871  00000-0  80756-4 0  9996,2 56463  70.0004 177.2261 0002602 267.1372  92.9490 14.98334295 67757,6950.18,96.107,573.853,570.236,0.0
56463.0,STARLINK-6051,PAYLOAD,2024-08-02 22:33:44,14.98330563,0.0002542,70.0006,176.3855,261.4593,98.6278,4.8011e-05,4.8e-06,0.0,0 STARLINK-6051,1 56463U 23064R   24215.94009892  .00000480  00000-0  48011-4 0  9994,2 56463  70.0006 176.3855 0002542 261.4593  98.6278 14.98330563 67800,6950.191,96.107,573.823,570.289,0.0
56463.0,STARLINK-6051,PAYLOAD,2024-08-03 04:58:16,14.98328883,0.0002592,70.0005,175.7115,265.5776,94.5087,1.855e-05,1.28e-06,0.0,0 STARLINK-6051,1 56463U 23064R   24216.20714066  .00000128  00000-0  18550-4 0  9994,2 56463  70.0005 175.7115 0002592 265.5776  94.5087 14.98328883 68204,6950.196,96.107,573.863,570.26,0.0
56463.0,STARLINK-6051,PAYLOAD,2024-08-03 14:35:05,14.98332901,0.0002649,70.0008,174.7013,266.132,93.9536,-8.4279e-05,-1.098e-05,0.0,0 STARLINK-6051,1 56463U 23064R   24216.60769977 -.00001098  00000-0 -84279-4 0  9999,2 56463  70.0008 174.7013 0002649 266.1320  93.9536 14.98332901 67902,6950.184,96.107,573.89,570.208,0.0
56463.0,STARLINK-6051,PAYLOAD,2024-08-03 22:35:45,14.98332978,0.0002777,70.0001,173.859,266.3506,93.7336,-2.2847e-05,-3.66e-06,0.0,0 STARLINK-6051,1 56463U 23064R   24216.94149834 -.00000366  00000-0 -22847-4 0  9990,2 56463  70.0001 173.8590 0002777 266.3506  93.7336 14.98332978 67950,6950.184,96.107,573.979,570.119,0.0
56463.0,STARLINK-6051,PAYLOAD,2024-08-04 05:00:17,14.98335064,0.0002664,70.0004,173.1864,264.2103,95.8752,1.8608e-05,1.29e-06,0.0,0 STARLINK-6051,1 56463U 23064R   24217.20853578  .00000129  00000-0  18608-4 0  9992,2 56463  70.0004 173.1864 0002664 264.2103  95.8752 14.98335064 68354,6950.177,96.107,573.894,570.191,0.0
56463.0,STARLINK-6051,PAYLOAD,2024-08-04 14:37:05,14.9833774,0.0002942,69.9997,172.1754,269.3666,90.7156,-2.3053e-05,-3.68e-06,0.0,0 STARLINK-6051,1 56463U 23064R   24217.60909333 -.00000368  00000-0 -23053-4 0  9994,2 56463  69.9997 172.1754 0002942 269.3666  90.7156 14.98337740 68050,6950.169,96.107,574.079,569.989,0.0
56463.0,STARLINK-6051,PAYLOAD,2024-08-04 22:37:46,14.98329923,0.0002901,69.9997,171.3334,268.4237,91.6589,0.00014549,1.643e-05,0.0,0 STARLINK-6051,1 56463U 23064R   24217.94289512  .00001643  00000-0  14549-3 0  9995,2 56463  69.9997 171.3334 0002901 268.4237  91.6589 14.98329923 68104,6950.193,96.107,574.074,570.042,0.0
56463.0,STARLINK-6051,PAYLOAD,2024-08-05 05:02:17,14.98337674,0.0002756,70.0001,170.661,265.2501,94.8343,0.00017541,2.001e-05,0.0,0 STARLINK-6051,1 56463U 23064R   24218.20992982  .00002001  00000-0  17541-3 0  9991,2 56463  70.0001 170.6610 0002756 265.2501  94.8343 14.98337674 68508,6950.169,96.107,573.95,570.119,0.0
56463.0,STARLINK-6051,PAYLOAD,2024-08-05 22:39:47,14.98322793,0.0002261,70.0031,168.8123,238.6009,121.493,8.8811e-08,-9.2e-07,0.0,0 STARLINK-6051,1 56463U 23064R   24218.94430383 -.00000092  00000-0  88811-7 0  9995,2 56463  70.0031 168.8123 0002261 238.6009 121.4930 14.98322793 68254,6950.215,96.107,573.652,570.509,0.0
56463.0,STARLINK-6051,PAYLOAD,2024-08-06 05:04:21,14.98315429,0.0002749,70.0003,168.1374,268.8486,91.2358,-0.00013386,-1.689e-05,0.0,0 STARLINK-6051,1 56463U 23064R   24219.21135443 -.00001689  00000-0 -13386-3 0  9990,2 56463  70.0003 168.1374 0002749 268.8486  91.2358 14.98315429 68659,6950.238,96.108,574.014,570.192,0.0
56463.0,STARLINK-6051,PAYLOAD,2024-08-06 14:41:09,14.98323809,0.0002901,70.0,167.1264,274.2495,85.8333,-5.0063e-05,-6.9e-06,0.0,0 STARLINK-6051,1 56463U 23064R   24219.61190986 -.00000690  00000-0 -50063-4 0  9992,2 56463  70.0000 167.1264 0002901 274.2495  85.8333 14.98323809 68354,6950.212,96.107,574.093,570.061,0.0
56463.0,STARLINK-6051,PAYLOAD,2024-08-06 21:05:40,14.98326959,0.0003071,69.9994,166.4534,274.3857,85.6951,3.7481e-05,3.54e-06,0.0,0 STARLINK-6051,1 56463U 23064R   24219.87894611  .00000354  00000-0  37481-4 0  9990,2 56463  69.9994 166.4534 0003071 274.3857  85.6951 14.98326959 68754,6950.202,96.107,574.202,569.933,0.0
56463.0,STARLINK-6051,PAYLOAD,2024-08-07 03:30:12,14.98338138,0.0002945,69.9996,165.7799,272.5397,87.5425,9.8219e-05,1.079e-05,0.0,0 STARLINK-6051,1 56463U 23064R   24220.14597888  .00001079  00000-0  98219-4 0  9999,2 56463  69.9996 165.7799 0002945 272.5397  87.5425 14.98338138 68792,6950.168,96.106,574.08,569.986,0.0
